OBJECT_NAME,OBJECT_ID,EPOCH,MEAN_MOTION,ECCENTRICITY,INCLINATION,RA_OF_ASC_NODE,ARG_OF_PERICENTER,MEAN_ANOMALY,EPHEMERIS_TYPE,CLASSIFICATION_TYPE,NORAD_CAT_ID,ELEMENT_SET_NO,REV_AT_EPOCH,BSTAR,MEAN_MOTION_DOT,MEAN_MOTION_DDOT
TIANMU-1 20,2023-208B,2026-06-03T22:34:34.258656,15.32554890,.00072377,97.4440,271.7976,23.3839,336.7730,0,U,58661,999,13539,.29361168E-3,.9159E-4,0
TIANMU-1 21,2023-208C,2026-06-03T22:46:16.428000,15.34829423,.00070748,97.4498,274.4295,16.2645,343.8824,0,U,58662,999,13553,.31922454E-3,.1071E-3,0
TIANMU-1 22,2023-208D,2026-06-03T22:26:49.445664,15.30862263,.00044268,97.4493,271.1177,47.1948,312.9665,0,U,58663,999,13530,.28539407E-3,.8437E-4,0
TIANMU-1 15,2024-004A,2026-06-03T22:14:29.575680,15.26878143,.00079451,97.4668,341.1157,45.9185,314.2706,0,U,58700,999,13375,.24164443E-3,.6311E-4,0
TIANMU-1 16,2024-004B,2026-06-03T21:55:33.299904,15.26604267,.00070347,97.4614,340.3544,50.1360,310.0496,0,U,58701,999,13375,.24416938E-3,.6323E-4,0
TIANMU-1 17,2024-004C,2026-06-03T23:08:59.258400,15.26604461,.0006662,97.4642,340.8854,55.1786,305.0078,0,U,58702,999,13375,.2259005E-3,.5844E-4,0
TIANMU-1 18,2024-004D,2026-06-03T22:38:12.333120,15.26863611,.00051799,97.4660,341.1112,54.1084,306.0635,0,U,58703,999,13375,.2317655E-3,.6044E-4,0
INSAT-3DS,2024-033A,2026-06-03T20:50:26.520000,1.00271130,.00016539,0.0159,244.4285,180.6636,221.9062,0,U,58990,999,4693,0,-.144E-5,0
METEOR-M2 4,2024-039A,2026-06-03T23:01:08.273856,14.22428084,.00065112,98.7005,114.4239,199.7015,160.3912,0,U,59051,999,11738,.27034684E-4,.16E-6,0
GOES 19,2024-119A,2026-06-03T21:48:20.968128,1.00271819,.00006683,0.0463,136.4856,352.8767,14.9023,0,U,60133,999,683,0,-.236E-5,0
MTG-S1,2025-143A,2026-06-03T22:08:42.317664,1.00271550,.00012168,0.6149,336.0817,38.0195,206.9775,0,U,64723,999,328,0,-.2E-6,0
METOP-SGA1,2025-172A,2026-06-03T14:59:03.196320,14.21507401,.00010093,98.6649,214.5989,84.7604,275.3688,0,U,65159,999,4186,.46189574E-4,.58E-6,0
FENGYUN 3H,2025-219A,2026-06-03T10:35:08.023776,14.19917857,.00016378,98.6765,95.4778,88.4136,271.7228,0,U,65815,999,3543,.58743444E-4,.81E-6,0
