TIANMU-1 20             
1 58661U 23208B   26154.94067429  .00009159  00000+0  29361-3 0  9997
2 58661  97.4440 271.7976 0007237  23.3839 336.7730 15.32554890135394
TIANMU-1 21             
1 58662U 23208C   26154.94880125  .00010710  00000+0  31922-3 0  9995
2 58662  97.4498 274.4295 0007074  16.2645 343.8824 15.34829423135535
TIANMU-1 22             
1 58663U 23208D   26154.93529451  .00008437  00000+0  28539-3 0  9990
2 58663  97.4493 271.1177 0004426  47.1948 312.9665 15.30862263135301
TIANMU-1 15             
1 58700U 24004A   26154.92673120  .00006311  00000+0  24164-3 0  9998
2 58700  97.4668 341.1157 0007945  45.9185 314.2706 15.26878143133758
TIANMU-1 16             
1 58701U 24004B   26154.91357986  .00006323  00000+0  24417-3 0  9991
2 58701  97.4614 340.3544 0007034  50.1360 310.0496 15.26604267133757
TIANMU-1 17             
1 58702U 24004C   26154.96457475  .00005844  00000+0  22590-3 0  9998
2 58702  97.4642 340.8854 0006662  55.1786 305.0078 15.26604461133757
TIANMU-1 18             
1 58703U 24004D   26154.94319830  .00006044  00000+0  23177-3 0  9994
2 58703  97.4660 341.1112 0005179  54.1084 306.0635 15.26863611133755
INSAT-3DS               
1 58990U 24033A   26154.86836250 -.00000144  00000+0  00000+0 0  9997
2 58990   0.0159 244.4285 0001653 180.6636 221.9062  1.00271130 46931
METEOR-M2 4             
1 59051U 24039A   26154.95912354  .00000016  00000+0  27035-4 0  9991
2 59051  98.7005 114.4239 0006511 199.7015 160.3912 14.22428084117387
GOES 19                 
1 60133U 24119A   26154.90857602 -.00000236  00000+0  00000+0 0  9995
2 60133   0.0463 136.4856 0000668 352.8767  14.9023  1.00271819  6834
MTG-S1                  
1 64723U 25143A   26154.92271201 -.00000020  00000+0  00000+0 0  9990
2 64723   0.6149 336.0817 0001216  38.0195 206.9775  1.00271550  3288
METOP-SGA1              
1 65159U 25172A   26154.62434255  .00000058  00000+0  46190-4 0  9998
2 65159  98.6649 214.5989 0001009  84.7604 275.3688 14.21507401 41860
FENGYUN 3H              
1 65815U 25219A   26154.44106509  .00000081  00000+0  58743-4 0  9990
2 65815  98.6765  95.4778 0001637  88.4136 271.7228 14.19917857 35431
